{
  "type": "FeatureCollection",
  "features": [
    {
      "type": "Feature",
      "properties": {
        "norad_id": 43823,
        "name": "GEO-KOMPSAT-2A",
        "group": "weather",
        "lat": -0.02467002343115195,
        "lon": 36.9104921318441,
        "alt_km": 35786.14497345446,
        "timestamp": "2025-12-25T11:37:44.065032+00:00",
        "meta_object_name": "GEO-KOMPSAT-2A",
        "meta_object_id": "2018-100A",
        "meta_epoch": "2025-12-24T05:33:51.801120",
        "meta_mean_motion": 1.00269294,
        "meta_eccentricity": 3.001e-05,
        "meta_inclination": 0.0444,
        "meta_ra_of_asc_node": 175.8502,
        "meta_arg_of_pericenter": 270.743,
        "meta_mean_anomaly": 218.1364,
        "meta_ephemeris_type": 0,
        "meta_classification_type": "U",
        "meta_norad_cat_id": 43823,
        "meta_element_set_no": 999,
        "meta_rev_at_epoch": 2587,
        "meta_bstar": 0,
        "meta_mean_motion_dot": -3.23e-06,
        "meta_mean_motion_ddot": 0,
        "tle_line1": "1 43823U 18100A   25358.23184955 -.00000323  00000+0  00000+0 0  9997",
        "tle_line2": "2 43823   0.0444 175.8502 0000300 270.7430 218.1364  1.00269294 25878"
      },
      "geometry": {
        "type": "Point",
        "coordinates": [
          36.9104921318441,
          -0.02467002343115195
        ]
      }
    },
    {
      "type": "Feature",
      "properties": {
        "norad_id": 44387,
        "name": "METEOR-M2 2",
        "group": "weather",
        "lat": 13.03768509508633,
        "lon": 161.4489403788138,
        "alt_km": 810.9848046144052,
        "timestamp": "2025-12-25T11:37:44.065044+00:00",
        "meta_object_name": "METEOR-M2 2",
        "meta_object_id": "2019-038A",
        "meta_epoch": "2025-12-25T04:06:17.952768",
        "meta_mean_motion": 14.24296286,
        "meta_eccentricity": 0.00018,
        "meta_inclination": 98.8986,
        "meta_ra_of_asc_node": 339.0525,
        "meta_arg_of_pericenter": 124.5068,
        "meta_mean_anomaly": 235.628,
        "meta_ephemeris_type": 0,
        "meta_classification_type": "U",
        "meta_norad_cat_id": 44387,
        "meta_element_set_no": 999,
        "meta_rev_at_epoch": 33652,
        "meta_bstar": 7.6025e-05,
        "meta_mean_motion_dot": 1.3e-06,
        "meta_mean_motion_ddot": 0,
        "tle_line1": "1 44387U 19038A   25359.17104112  .00000130  00000+0  76025-4 0  9995",
        "tle_line2": "2 44387  98.8986 339.0525 0001800 124.5068 235.6280 14.24296286336527"
      },
      "geometry": {
        "type": "Point",
        "coordinates": [
          161.4489403788138,
          13.03768509508633
        ]
      }
    },
    {
      "type": "Feature",
      "properties": {
        "norad_id": 47719,
        "name": "ARKTIKA-M 1",
        "group": "weather",
        "lat": 13.137385384745198,
        "lon": -104.46464142427814,
        "alt_km": 9068.152089022868,
        "timestamp": "2025-12-25T11:37:44.065057+00:00",
        "meta_object_name": "ARKTIKA-M 1",
        "meta_object_id": "2021-016A",
        "meta_epoch": "2025-12-25T00:52:45.922368",
        "meta_mean_motion": 2.00630507,
        "meta_eccentricity": 0.7210339,
        "meta_inclination": 63.177,
        "meta_ra_of_asc_node": 82.3163,
        "meta_arg_of_pericenter": 269.1694,
        "meta_mean_anomaly": 15.5374,
        "meta_ephemeris_type": 0,
        "meta_classification_type": "U",
        "meta_norad_cat_id": 47719,
        "meta_element_set_no": 999,
        "meta_rev_at_epoch": 3529,
        "meta_bstar": 0,
        "meta_mean_motion_dot": -4.3e-07,
        "meta_mean_motion_ddot": 0,
        "tle_line1": "1 47719U 21016A   25359.03664262 -.00000043  00000+0  00000+0 0  9997",
        "tle_line2": "2 47719  63.1770  82.3163 7210339 269.1694  15.5374  2.00630507 35296"
      },
      "geometry": {
        "type": "Point",
        "coordinates": [
          -104.46464142427814,
          13.137385384745198
        ]
      }
    },
    {
      "type": "Feature",
      "properties": {
        "norad_id": 49008,
        "name": "FENGYUN 3E",
        "group": "weather",
        "lat": -73.9188132696202,
        "lon": 32.13718152382782,
        "alt_km": 833.0963246678175,
        "timestamp": "2025-12-25T11:37:44.065071+00:00",
        "meta_object_name": "FENGYUN 3E",
        "meta_object_id": "2021-062A",
        "meta_epoch": "2025-12-25T03:31:56.537760",
        "meta_mean_motion": 14.19881103,
        "meta_eccentricity": 9.4e-05,
        "meta_inclination": 98.7476,
        "meta_ra_of_asc_node": 359.521,
        "meta_arg_of_pericenter": 189.9291,
        "meta_mean_anomaly": 170.1866,
        "meta_ephemeris_type": 0,
        "meta_classification_type": "U",
        "meta_norad_cat_id": 49008,
        "meta_element_set_no": 999,
        "meta_rev_at_epoch": 23188,
        "meta_bstar": 2.5812e-05,
        "meta_mean_motion_dot": 1.1e-07,
        "meta_mean_motion_ddot": 0,
        "tle_line1": "1 49008U 21062A   25359.14718215  .00000011  00000+0  25812-4 0  9998",
        "tle_line2": "2 49008  98.7476 359.5210 0000940 189.9291 170.1866 14.19881103231888"
      },
      "geometry": {
        "type": "Point",
        "coordinates": [
          32.13718152382782,
          -73.9188132696202
        ]
      }
    },
    {
      "type": "Feature",
      "properties": {
        "norad_id": 51850,
        "name": "GOES 18",
        "group": "weather",
        "lat": -0.00020088340651618203,
        "lon": 131.66775419937179,
        "alt_km": 35787.896736150054,
        "timestamp": "2025-12-25T11:37:44.065083+00:00",
        "meta_object_name": "GOES 18",
        "meta_object_id": "2022-021A",
        "meta_epoch": "2025-12-25T02:08:26.134368",
        "meta_mean_motion": 1.00271254,
        "meta_eccentricity": 4.06e-05,
        "meta_inclination": 0.0027,
        "meta_ra_of_asc_node": 276.3002,
        "meta_arg_of_pericenter": 41.3938,
        "meta_mean_anomaly": 31.2662,
        "meta_ephemeris_type": 0,
        "meta_classification_type": "U",
        "meta_norad_cat_id": 51850,
        "meta_element_set_no": 999,
        "meta_rev_at_epoch": 484,
        "meta_bstar": 0,
        "meta_mean_motion_dot": 1.18e-06,
        "meta_mean_motion_ddot": 0,
        "tle_line1": "1 51850U 22021A   25359.08919137  .00000118  00000+0  00000+0 0  9996",
        "tle_line2": "2 51850   0.0027 276.3002 0000406  41.3938  31.2662  1.00271254  4846"
      },
      "geometry": {
        "type": "Point",
        "coordinates": [
          131.66775419937179,
          -0.00020088340651618203
        ]
      }
    },
    {
      "type": "Feature",
      "properties": {
        "norad_id": 54234,
        "name": "NOAA 21 (JPSS-2)",
        "group": "weather",
        "lat": -80.50929640560823,
        "lon": 2.711286499241886,
        "alt_km": 834.4395674991738,
        "timestamp": "2025-12-25T11:37:44.065094+00:00",
        "meta_object_name": "NOAA 21 (JPSS-2)",
        "meta_object_id": "2022-150A",
        "meta_epoch": "2025-12-25T01:53:06.115200",
        "meta_mean_motion": 14.19527459,
        "meta_eccentricity": 0.0001654,
        "meta_inclination": 98.7478,
        "meta_ra_of_asc_node": 295.2337,
        "meta_arg_of_pericenter": 12.6911,
        "meta_mean_anomaly": 347.4307,
        "meta_ephemeris_type": 0,
        "meta_classification_type": "U",
        "meta_norad_cat_id": 54234,
        "meta_element_set_no": 999,
        "meta_rev_at_epoch": 16184,
        "meta_bstar": 7.192e-05,
        "meta_mean_motion_dot": 1.08e-06,
        "meta_mean_motion_ddot": 0,
        "tle_line1": "1 54234U 22150A   25359.07854300  .00000108  00000+0  71920-4 0  9990",
        "tle_line2": "2 54234  98.7478 295.2337 0001654  12.6911 347.4307 14.19527459161845"
      },
      "geometry": {
        "type": "Point",
        "coordinates": [
          2.711286499241886,
          -80.50929640560823
        ]
      }
    },
    {
      "type": "Feature",
      "properties": {
        "norad_id": 54743,
        "name": "METEOSAT-12 (MTG-I1)",
        "group": "weather",
        "lat": -0.6415697952809378,
        "lon": -91.65281858188773,
        "alt_km": 35779.53515478762,
        "timestamp": "2025-12-25T11:37:44.065148+00:00",
        "meta_object_name": "METEOSAT-12 (MTG-I1)",
        "meta_object_id": "2022-170C",
        "meta_epoch": "2025-12-24T21:39:29.392128",
        "meta_mean_motion": 1.00270881,
        "meta_eccentricity": 0.0001621,
        "meta_inclination": 0.6994,
        "meta_ra_of_asc_node": 25.6342,
        "meta_arg_of_pericenter": 240.988,
        "meta_mean_anomaly": 151.5996,
        "meta_ephemeris_type": 0,
        "meta_classification_type": "U",
        "meta_norad_cat_id": 54743,
        "meta_element_set_no": 999,
        "meta_rev_at_epoch": 1123,
        "meta_bstar": 0,
        "meta_mean_motion_dot": 1.3e-07,
        "meta_mean_motion_ddot": 0,
        "tle_line1": "1 54743U 22170C   25358.90242352  .00000013  00000+0  00000+0 0  9997",
        "tle_line2": "2 54743   0.6994  25.6342 0001621 240.9880 151.5996  1.00270881 11236"
      },
      "geometry": {
        "type": "Point",
        "coordinates": [
          -91.65281858188773,
          -0.6415697952809378
        ]
      }
    }
  ]
}